DELTA 2 R/B(1)          
1 20453U 90008B   26004.93010937  .00057370  00000+0  86057-3 0  9995
2 20453  35.6041 230.5434 0104919  29.0001 331.6510 15.47596096916223
COSMOS 2058             
1 20465U 90010A   26004.74362286  .00005414  00000+0  32460-3 0  9998
2 20465  82.4720 110.4050 0010030 190.6287 169.4733 15.10734374932585
SL-14 R/B               
1 20466U 90010B   26004.94848282  .00000706  00000+0  82674-4 0  9998
2 20466  82.5035 327.2498 0020630 146.1807 214.0728 14.83498961919035
SL-14 R/B               
1 20511U 90018B   26004.83738346  .00000799  00000+0  97459-4 0  9993
2 20511  82.5221 282.7784 0015193 305.6523  54.3276 14.82076604913123
HST                     
1 20580U 90037B   26004.45283297  .00008296  00000+0  28355-3 0  9996
2 20580  28.4666 117.8486 0002526 116.6898 243.3956 15.28391625763479
SL-16 R/B               
1 20625U 90046B   26004.93304609  .00000362  00000+0  21144-3 0  9995
2 20625  70.9996  71.8141 0012827  33.9616 326.2325 14.15001532839372
COSMOS 2084             
1 20663U 90055A   26004.88817137  .00003925  00000+0  28562-3 0  9995
2 20663  62.7887 193.1092 0027837 177.9947 182.1270 15.05186671926719
SL-6 R/B(2)             
1 20666U 90055D   26004.65215377  .00003399  00000+0  26380-3 0  9992
2 20666  62.7841 111.5562 0015572 323.6778  36.3263 15.03215788928560
SL-8 R/B                
1 20775U 90078B   26004.95676884  .00014839  00000+0  45405-3 0  9995
2 20775  82.9069 308.5163 0369119 227.6926 129.2471 14.86782030799826
SL-8 R/B                
1 21088U 91006B   26004.70589831  .00000034  00000+0  19173-4 0  9999
2 21088  82.9410 217.6294 0021737 212.0767 218.3405 13.77492913755265
OKEAN-3                 
1 21397U 91039A   26004.83205127  .00004874  00000+0  34749-3 0  9996
2 21397  82.5151  38.6908 0014236 181.8982 178.2193 15.04291180855430
COSMOS 2151             
1 21422U 91042A   26004.90853173  .00002862  00000+0  22907-3 0  9995
2 21422  82.4975 145.1753 0011138 275.7429  84.2525 14.99803225853638
