CCSDS_OMM_VERS = 2.0
CREATION_DATE  = 
ORIGINATOR     = 

OBJECT_NAME    = DELTA 2 R/B(1)
OBJECT_ID      = 1990-008B
CENTER_NAME    = EARTH
REF_FRAME      = TEME
TIME_SYSTEM    = UTC
MEAN_ELEMENT_THEORY = SGP/SGP4

EPOCH          = 2026-01-04T22:19:21.449568
MEAN_MOTION    = 15.47596096
ECCENTRICITY   = .01049196
INCLINATION    = 35.6041
RA_OF_ASC_NODE = 230.5434
ARG_OF_PERICENTER = 29.0001
MEAN_ANOMALY   = 331.6510

EPHEMERIS_TYPE = 0
CLASSIFICATION_TYPE = U
NORAD_CAT_ID   = 20453
ELEMENT_SET_NO = 999
REV_AT_EPOCH   = 91622
BSTAR          = .8605653E-3
MEAN_MOTION_DOT = .5737E-3
MEAN_MOTION_DDOT = 0

CCSDS_OMM_VERS = 2.0
CREATION_DATE  = 
ORIGINATOR     = 

OBJECT_NAME    = COSMOS 2058
OBJECT_ID      = 1990-010A
CENTER_NAME    = EARTH
REF_FRAME      = TEME
TIME_SYSTEM    = UTC
MEAN_ELEMENT_THEORY = SGP/SGP4

EPOCH          = 2026-01-04T17:50:49.015104
MEAN_MOTION    = 15.10734374
ECCENTRICITY   = .00100306
INCLINATION    = 82.4720
RA_OF_ASC_NODE = 110.4050
ARG_OF_PERICENTER = 190.6287
MEAN_ANOMALY   = 169.4733

EPHEMERIS_TYPE = 0
CLASSIFICATION_TYPE = U
NORAD_CAT_ID   = 20465
ELEMENT_SET_NO = 999
REV_AT_EPOCH   = 93258
BSTAR          = .32459511E-3
MEAN_MOTION_DOT = .5414E-4
MEAN_MOTION_DDOT = 0

CCSDS_OMM_VERS = 2.0
CREATION_DATE  = 
ORIGINATOR     = 

OBJECT_NAME    = SL-14 R/B
OBJECT_ID      = 1990-010B
CENTER_NAME    = EARTH
REF_FRAME      = TEME
TIME_SYSTEM    = UTC
MEAN_ELEMENT_THEORY = SGP/SGP4

EPOCH          = 2026-01-04T22:45:48.915648
MEAN_MOTION    = 14.83498961
ECCENTRICITY   = .00206304
INCLINATION    = 82.5035
RA_OF_ASC_NODE = 327.2498
ARG_OF_PERICENTER = 146.1807
MEAN_ANOMALY   = 214.0728

EPHEMERIS_TYPE = 0
CLASSIFICATION_TYPE = U
NORAD_CAT_ID   = 20466
ELEMENT_SET_NO = 999
REV_AT_EPOCH   = 91903
BSTAR          = .82673905E-4
MEAN_MOTION_DOT = .706E-5
MEAN_MOTION_DDOT = 0

CCSDS_OMM_VERS = 2.0
CREATION_DATE  = 
ORIGINATOR     = 

OBJECT_NAME    = SL-14 R/B
OBJECT_ID      = 1990-018B
CENTER_NAME    = EARTH
REF_FRAME      = TEME
TIME_SYSTEM    = UTC
MEAN_ELEMENT_THEORY = SGP/SGP4

EPOCH          = 2026-01-04T20:05:49.930944
MEAN_MOTION    = 14.82076604
ECCENTRICITY   = .00151939
INCLINATION    = 82.5221
RA_OF_ASC_NODE = 282.7784
ARG_OF_PERICENTER = 305.6523
MEAN_ANOMALY   = 54.3276

EPHEMERIS_TYPE = 0
CLASSIFICATION_TYPE = U
NORAD_CAT_ID   = 20511
ELEMENT_SET_NO = 999
REV_AT_EPOCH   = 91312
BSTAR          = .97459301E-4
MEAN_MOTION_DOT = .799E-5
MEAN_MOTION_DDOT = 0

CCSDS_OMM_VERS = 2.0
CREATION_DATE  = 
ORIGINATOR     = 

OBJECT_NAME    = HST
OBJECT_ID      = 1990-037B
CENTER_NAME    = EARTH
REF_FRAME      = TEME
TIME_SYSTEM    = UTC
MEAN_ELEMENT_THEORY = SGP/SGP4

EPOCH          = 2026-01-04T10:52:04.768608
MEAN_MOTION    = 15.28391625
ECCENTRICITY   = .00025269
INCLINATION    = 28.4666
RA_OF_ASC_NODE = 117.8486
ARG_OF_PERICENTER = 116.6898
MEAN_ANOMALY   = 243.3956

EPHEMERIS_TYPE = 0
CLASSIFICATION_TYPE = U
NORAD_CAT_ID   = 20580
ELEMENT_SET_NO = 999
REV_AT_EPOCH   = 76347
BSTAR          = .2835543E-3
MEAN_MOTION_DOT = .8296E-4
MEAN_MOTION_DDOT = 0

CCSDS_OMM_VERS = 2.0
CREATION_DATE  = 
ORIGINATOR     = 

OBJECT_NAME    = SL-16 R/B
OBJECT_ID      = 1990-046B
CENTER_NAME    = EARTH
REF_FRAME      = TEME
TIME_SYSTEM    = UTC
MEAN_ELEMENT_THEORY = SGP/SGP4

EPOCH          = 2026-01-04T22:23:35.182176
MEAN_MOTION    = 14.15001532
ECCENTRICITY   = .00128275
INCLINATION    = 70.9996
RA_OF_ASC_NODE = 71.8141
ARG_OF_PERICENTER = 33.9616
MEAN_ANOMALY   = 326.2325

EPHEMERIS_TYPE = 0
CLASSIFICATION_TYPE = U
NORAD_CAT_ID   = 20625
ELEMENT_SET_NO = 999
REV_AT_EPOCH   = 83937
BSTAR          = .21143652E-3
MEAN_MOTION_DOT = .362E-5
MEAN_MOTION_DDOT = 0

CCSDS_OMM_VERS = 2.0
CREATION_DATE  = 
ORIGINATOR     = 

OBJECT_NAME    = COSMOS 2084
OBJECT_ID      = 1990-055A
CENTER_NAME    = EARTH
REF_FRAME      = TEME
TIME_SYSTEM    = UTC
MEAN_ELEMENT_THEORY = SGP/SGP4

EPOCH          = 2026-01-04T21:18:58.006368
MEAN_MOTION    = 15.05186671
ECCENTRICITY   = .00278373
INCLINATION    = 62.7887
RA_OF_ASC_NODE = 193.1092
ARG_OF_PERICENTER = 177.9947
MEAN_ANOMALY   = 182.1270

EPHEMERIS_TYPE = 0
CLASSIFICATION_TYPE = U
NORAD_CAT_ID   = 20663
ELEMENT_SET_NO = 999
REV_AT_EPOCH   = 92671
BSTAR          = .28562177E-3
MEAN_MOTION_DOT = .3925E-4
MEAN_MOTION_DDOT = 0

CCSDS_OMM_VERS = 2.0
CREATION_DATE  = 
ORIGINATOR     = 

OBJECT_NAME    = SL-6 R/B(2)
OBJECT_ID      = 1990-055D
CENTER_NAME    = EARTH
REF_FRAME      = TEME
TIME_SYSTEM    = UTC
MEAN_ELEMENT_THEORY = SGP/SGP4

EPOCH          = 2026-01-04T15:39:06.085728
MEAN_MOTION    = 15.03215788
ECCENTRICITY   = .0015572
INCLINATION    = 62.7841
RA_OF_ASC_NODE = 111.5562
ARG_OF_PERICENTER = 323.6778
MEAN_ANOMALY   = 36.3263

EPHEMERIS_TYPE = 0
CLASSIFICATION_TYPE = U
NORAD_CAT_ID   = 20666
ELEMENT_SET_NO = 999
REV_AT_EPOCH   = 92856
BSTAR          = .2638E-3
MEAN_MOTION_DOT = .3399E-4
MEAN_MOTION_DDOT = 0

CCSDS_OMM_VERS = 2.0
CREATION_DATE  = 
ORIGINATOR     = 

OBJECT_NAME    = SL-8 R/B
OBJECT_ID      = 1990-078B
CENTER_NAME    = EARTH
REF_FRAME      = TEME
TIME_SYSTEM    = UTC
MEAN_ELEMENT_THEORY = SGP/SGP4

EPOCH          = 2026-01-04T22:57:44.827776
MEAN_MOTION    = 14.86782030
ECCENTRICITY   = .03691196
INCLINATION    = 82.9069
RA_OF_ASC_NODE = 308.5163
ARG_OF_PERICENTER = 227.6926
MEAN_ANOMALY   = 129.2471

EPHEMERIS_TYPE = 0
CLASSIFICATION_TYPE = U
NORAD_CAT_ID   = 20775
ELEMENT_SET_NO = 999
REV_AT_EPOCH   = 79982
BSTAR          = .45405415E-3
MEAN_MOTION_DOT = .14839E-3
MEAN_MOTION_DDOT = 0

CCSDS_OMM_VERS = 2.0
CREATION_DATE  = 
ORIGINATOR     = 

OBJECT_NAME    = SL-8 R/B
OBJECT_ID      = 1991-006B
CENTER_NAME    = EARTH
REF_FRAME      = TEME
TIME_SYSTEM    = UTC
MEAN_ELEMENT_THEORY = SGP/SGP4

EPOCH          = 2026-01-04T16:56:29.613984
MEAN_MOTION    = 13.77492913
ECCENTRICITY   = .00217372
INCLINATION    = 82.9410
RA_OF_ASC_NODE = 217.6294
ARG_OF_PERICENTER = 212.0767
MEAN_ANOMALY   = 218.3405

EPHEMERIS_TYPE = 0
CLASSIFICATION_TYPE = U
NORAD_CAT_ID   = 21088
ELEMENT_SET_NO = 999
REV_AT_EPOCH   = 75526
BSTAR          = .19173056E-4
MEAN_MOTION_DOT = .34E-6
MEAN_MOTION_DDOT = 0

CCSDS_OMM_VERS = 2.0
CREATION_DATE  = 
ORIGINATOR     = 

OBJECT_NAME    = OKEAN-3
OBJECT_ID      = 1991-039A
CENTER_NAME    = EARTH
REF_FRAME      = TEME
TIME_SYSTEM    = UTC
MEAN_ELEMENT_THEORY = SGP/SGP4

EPOCH          = 2026-01-04T19:58:09.229728
MEAN_MOTION    = 15.04291180
ECCENTRICITY   = .00142366
INCLINATION    = 82.5151
RA_OF_ASC_NODE = 38.6908
ARG_OF_PERICENTER = 181.8982
MEAN_ANOMALY   = 178.2193

EPHEMERIS_TYPE = 0
CLASSIFICATION_TYPE = U
NORAD_CAT_ID   = 21397
ELEMENT_SET_NO = 999
REV_AT_EPOCH   = 85543
BSTAR          = .34748618E-3
MEAN_MOTION_DOT = .4874E-4
MEAN_MOTION_DDOT = 0

CCSDS_OMM_VERS = 2.0
CREATION_DATE  = 
ORIGINATOR     = 

OBJECT_NAME    = COSMOS 2151
OBJECT_ID      = 1991-042A
CENTER_NAME    = EARTH
REF_FRAME      = TEME
TIME_SYSTEM    = UTC
MEAN_ELEMENT_THEORY = SGP/SGP4

EPOCH          = 2026-01-04T21:48:17.141472
MEAN_MOTION    = 14.99803225
ECCENTRICITY   = .00111385
INCLINATION    = 82.4975
RA_OF_ASC_NODE = 145.1753
ARG_OF_PERICENTER = 275.7429
MEAN_ANOMALY   = 84.2525

EPHEMERIS_TYPE = 0
CLASSIFICATION_TYPE = U
NORAD_CAT_ID   = 21422
ELEMENT_SET_NO = 999
REV_AT_EPOCH   = 85363
BSTAR          = .22907293E-3
MEAN_MOTION_DOT = .2862E-4
MEAN_MOTION_DDOT = 0

